TOMORROW-S7             
1 63631U 25081B   26068.64931870  .00002135  00000+0  19093-3 0  9990
2 63631  45.3909 132.5570 0000463 121.9907 238.1016 14.99242141 48231
STARLINK-34061          
1 63876U 25094N   26068.85947909  .00004223  00000+0  36145-3 0  9995
2 63876  70.0018 234.2253 0003093 273.3985  86.6821 14.98336916 47227
